[{"OBJECT_NAME":"YAOGAN-35 02A","OBJECT_ID":"2022-068A","EPOCH":"2026-03-09T23:36:37.257984","MEAN_MOTION":15.22666149,"ECCENTRICITY":0.00125559,"INCLINATION":34.9934,"RA_OF_ASC_NODE":42.9156,"ARG_OF_PERICENTER":259.7032,"MEAN_ANOMALY":100.2267,"EPHEMERIS_TYPE":0,"CLASSIFICATION_TYPE":"U","NORAD_CAT_ID":52907,"ELEMENT_SET_NO":999,"REV_AT_EPOCH":20675,"BSTAR":0.00043413541,"MEAN_MOTION_DOT":0.00010355,"MEAN_MOTION_DDOT":0},{"OBJECT_NAME":"STARLINK-30813","OBJECT_ID":"2023-170H","EPOCH":"2026-03-08T10:45:26.792064","MEAN_MOTION":15.26795732,"ECCENTRICITY":0.00021909,"INCLINATION":43.0016,"RA_OF_ASC_NODE":200.8924,"ARG_OF_PERICENTER":276.2944,"MEAN_ANOMALY":83.7658,"EPHEMERIS_TYPE":0,"CLASSIFICATION_TYPE":"U","NORAD_CAT_ID":58213,"ELEMENT_SET_NO":999,"REV_AT_EPOCH":13011,"BSTAR":-0.001014739,"MEAN_MOTION_DOT":-0.00027426,"MEAN_MOTION_DDOT":0}]
